H1 CPF 01  gfz 2022 11 25 01  8291 tandemx   
H2 1003001  6202 36605    2022 11 25 00 59 42 2022 11 30 00 00 42   120 1 1  0 0 0
H9
10 0 59908  36702.000000  0    -689370.745   3061666.707   6121486.389
10 0 59908  36822.000000  0    -239699.432   2335458.394   6465256.563
10 0 59908  36942.000000  0     201021.083   1560696.682   6695384.973
10 0 59908  37062.000000  0     624370.785    751139.493   6807851.736
10 0 59908  37182.000000  0    1022482.105    -78712.877   6800692.173
10 0 59908  37302.000000  0    1388185.075   -913876.311   6674029.632
10 0 59908  37422.000000  0    1715136.202  -1739153.215   6430074.070
10 0 59908  37542.000000  0    1997928.902  -2539408.471   6073086.379
10 0 59908  37662.000000  0    2232183.907  -3299848.372   5609308.982
10 0 59908  37782.000000  0    2414618.092  -4006296.939   5046861.832
10 0 59908  37902.000000  0    2543089.967  -4645464.008   4395605.735
10 0 59908  38022.000000  0    2616622.681  -5205201.715   3666974.667
10 0 59908  38142.000000  0    2635402.651  -5674743.330   2873777.235
10 0 59908  38262.000000  0    2600752.764  -6044919.296   2029971.342
10 0 59908  38382.000000  0    2515081.386  -6308342.924   1150414.696
10 0 59908  38502.000000  0    2381808.865  -6459562.527    250598.854
10 0 59908  38622.000000  0    2205273.255  -6495178.517   -653630.737
10 0 59908  38742.000000  0    1990616.316  -6413918.357  -1546364.396
10 0 59908  38862.000000  0    1743651.951  -6216666.995  -2411916.885
10 0 59908  38982.000000  0    1470722.308  -5906455.410  -3235110.483
10 0 59908  39102.000000  0    1178544.908  -5488402.283  -4001545.148
10 0 59908  39222.000000  0     874056.991  -4969617.969  -4697849.561
10 0 59908  39342.000000  0     564258.383  -4359071.362  -5311910.418
10 0 59908  39462.000000  0     256057.458  -3667423.906  -5833075.838
10 0 59908  39582.000000  0     -43876.601  -2906834.164  -6252330.312
10 0 59908  39702.000000  0    -329252.065  -2090738.224  -6562439.122
10 0 59908  39822.000000  0    -594281.200  -1233610.363  -6758061.751
10 0 59908  39942.000000  0    -833792.742   -350708.231  -6835834.699
10 0 59908  40062.000000  0   -1043328.826    542194.733  -6794422.588
10 0 59908  40182.000000  0   -1219225.578   1429083.829  -6634537.588
10 0 59908  40302.000000  0   -1358675.719   2293982.949  -6358928.336
10 0 59908  40422.000000  0   -1459772.539   3121235.163  -5972338.701
10 0 59908  40542.000000  0   -1521535.384   3895782.971  -5481435.720
10 0 59908  40662.000000  0   -1543915.190   4603441.561  -4894705.412
10 0 59908  40782.000000  0   -1527780.772   5231162.412  -4222317.889
10 0 59908  40902.000000  0   -1474885.332   5767280.890  -3475960.582
10 0 59908  41022.000000  0   -1387813.118   6201741.690  -2668642.780
10 0 59908  41142.000000  0   -1269907.762   6526298.641  -1814474.740
10 0 59908  41262.000000  0   -1125183.312   6734683.449   -928422.065
10 0 59908  41382.000000  0    -958220.024   6822737.231    -26041.976
10 0 59908  41502.000000  0    -774046.841   6788503.691    876795.119
10 0 59908  41622.000000  0    -578013.628   6632277.820   1764194.558
10 0 59908  41742.000000  0    -375656.696   6356606.154   2620527.811
10 0 59908  41862.000000  0    -172561.300   5966241.418   3430714.881
10 0 59908  41982.000000  0      25775.217   5468055.345   4180494.985
10 0 59908  42102.000000  0     214076.434   4870911.942   4856683.947
10 0 59908  42222.000000  0     387414.087   4185495.079   5447408.590
10 0 59908  42342.000000  0     541324.884   3424108.196   5942309.265
10 0 59908  42462.000000  0     671914.691   2600445.982   6332719.047
10 0 59908  42582.000000  0     775947.402   1729340.832   6611809.449
10 0 59908  42702.000000  0     850917.879    826491.427   6774704.069
10 0 59908  42822.000000  0     895107.280    -91822.072   6818557.803
10 0 59908  42942.000000  0     907619.947  -1009030.312   6742603.925
10 0 59908  43062.000000  0     888401.074  -1908573.706   6548167.659
10 0 59908  43182.000000  0     838234.922  -2774201.234   6238644.931
10 0 59908  43302.000000  0     758723.499  -3590266.059   5819446.597
10 0 59908  43422.000000  0     652245.853  -4342010.031   5297906.843
10 0 59908  43542.000000  0     521900.461  -5015833.292   4683161.128
10 0 59908  43662.000000  0     371430.501  -5599547.360   3985993.423
10 0 59908  43782.000000  0     205132.421  -6082606.188   3218651.034
10 0 59908  43902.000000  0      27750.282  -6456307.306   2394630.316
10 0 59908  44022.000000  0    -155641.787  -6713957.790   1528437.067
10 0 59908  44142.000000  0    -339765.914  -6851003.020    635327.966
10 0 59908  44262.000000  0    -519273.122  -6865114.411   -268966.633
10 0 59908  44382.000000  0    -688878.247  -6756229.699  -1168529.969
10 0 59908  44502.000000  0    -843493.035  -6526546.786  -2047547.849
10 0 59908  44622.000000  0    -978354.662  -6180473.418  -2890593.330
10 0 59908  44742.000000  0   -1089146.844  -5724533.814  -3682902.763
10 0 59908  44862.000000  0   -1172110.223  -5167233.746  -4410636.776
10 0 59908  44982.000000  0   -1224139.032  -4518888.567  -5061119.586
10 0 59908  45102.000000  0   -1242862.448  -3791420.833  -5623053.297
10 0 59908  45222.000000  0   -1226708.812  -2998132.044  -6086705.301
10 0 59908  45342.000000  0   -1174951.665  -2153453.136  -6444066.432
10 0 59908  45462.000000  0   -1087737.155  -1272679.053  -6688977.539
10 0 59908  45582.000000  0    -966092.864   -371693.369  -6817224.869
10 0 59908  45702.000000  0    -811917.665    533313.872  -6826604.513
10 0 59908  45822.000000  0    -627952.079   1426129.878  -6716955.179
10 0 59908  45942.000000  0    -417730.931   2290801.782  -6490160.585
10 0 59908  46062.000000  0    -185518.683   3111914.601  -6150121.572
10 0 59908  46182.000000  0      63773.214   3874862.780  -5702697.574
10 0 59908  46302.000000  0     324685.172   4566109.167  -5155614.983
10 0 59908  46422.000000  0     591322.156   5173427.689  -4518345.563
10 0 59908  46542.000000  0     857479.246   5686127.059  -3801953.623
10 0 59908  46662.000000  0    1116777.782   6095248.784  -3018912.777
10 0 59908  46782.000000  0    1362808.997   6393735.508  -2182895.385
10 0 59908  46902.000000  0    1589282.316   6576565.723  -1308536.582
10 0 59908  47022.000000  0    1790174.841   6640850.147   -411176.484
10 0 59908  47142.000000  0    1959877.884   6585885.603    493414.289
10 0 59908  47262.000000  0    2093336.151   6413165.130   1389318.737
10 0 59908  47382.000000  0    2186176.855   6126344.596   2260761.435
10 0 59908  47502.000000  0    2234825.141   5731165.874   3092394.314
10 0 59908  47622.000000  0    2236603.243   5235339.339   3869574.537
10 0 59908  47742.000000  0    2189809.696   4648387.361   4578628.958
10 0 59908  47862.000000  0    2093777.123   3981451.472   5207099.191
10 0 59908  47982.000000  0    1948906.843   3247069.441   5743957.837
10 0 59908  48102.000000  0    1756681.890   2458933.185   6179797.483
10 0 59908  48222.000000  0    1519656.882   1631627.633   6506991.568
10 0 59908  48342.000000  0    1241424.794    780355.530   6719821.864
10 0 59908  48462.000000  0     926561.996    -79343.732   6814571.204
10 0 59908  48582.000000  0     580552.838   -931876.308   6789585.079
10 0 59908  48702.000000  0     209693.861  -1761877.084   6645300.001
10 0 59908  48822.000000  0    -179020.979  -2554486.556   6384236.147
10 0 59908  48942.000000  0    -578031.843  -3295617.977   6010955.345
10 0 59908  49062.000000  0    -979357.688  -3972208.445   5531983.781
10 0 59908  49182.000000  0   -1374752.747  -4572450.915   4955704.775
10 0 59908  49302.000000  0   -1755874.693  -5086006.930   4292220.788
10 0 59908  49422.000000  0   -2114459.949  -5504194.680   3553181.443
10 0 59908  49542.000000  0   -2442501.793  -5820145.140   2751579.886
10 0 59908  49662.000000  0   -2732426.744  -6028921.971   1901523.094
10 0 59908  49782.000000  0   -2977265.210  -6127604.474   1017980.162
10 0 59908  49902.000000  0   -3170812.284  -6115330.824    116512.541
10 0 59908  50022.000000  0   -3307774.482  -5993299.903   -787007.996
10 0 59908  50142.000000  0   -3383898.758  -5764731.436  -1676687.907
10 0 59908  50262.000000  0   -3396080.434  -5434784.925  -2536900.083
10 0 59908  50382.000000  0   -3342447.369  -5010439.999  -3352565.203
10 0 59908  50502.000000  0   -3222417.753  -4500341.412  -4109419.731
10 0 59908  50622.000000  0   -3036730.847  -3914614.368  -4794264.332
10 0 59908  50742.000000  0   -2787451.198  -3264655.603  -5395189.396
10 0 59908  50862.000000  0   -2477946.872  -2562904.864  -5901774.308
10 0 59908  50982.000000  0   -2112842.210  -1822602.477  -6305258.337
10 0 59908  51102.000000  0   -1697945.564  -1057537.509  -6598681.361
10 0 59908  51222.000000  0   -1240154.822   -281791.784  -6776991.913
10 0 59908  51342.000000  0    -747343.393    490514.992  -6837123.648
10 0 59908  51462.000000  0    -228226.907   1245475.535  -6778042.350
10 0 59908  51582.000000  0     307787.014   1969638.768  -6600761.386
10 0 59908  51702.000000  0     850763.797   2650243.468  -6308328.055
10 0 59908  51822.000000  0    1390422.673   3275440.280  -5905777.894
10 0 59908  51942.000000  0    1916326.871   3834497.111  -5400056.034
10 0 59908  52062.000000  0    2418082.156   4317984.714  -4799908.583
10 0 59908  52182.000000  0    2885540.541   4717941.011  -4115743.083
10 0 59908  52302.000000  0    3309004.939   5028010.004  -3359457.822
10 0 59908  52422.000000  0    3679431.178   5243551.564  -2544242.996
10 0 59908  52542.000000  0    3988623.055   5361719.070  -1684354.537
10 0 59908  52662.000000  0    4229414.181   5381502.371   -794865.514
10 0 59908  52782.000000  0    4395832.679   5303735.198    108601.609
10 0 59908  52902.000000  0    4483244.249   5131064.199   1010155.983
10 0 59908  53022.000000  0    4488467.998   4867880.853   1893925.218
10 0 59908  53142.000000  0    4409865.071   4520220.856   2744342.378
99
